DIWATA-2B               
1 43678U 18084H   23302.57006845  .00003334  00000+0  31798-3 0  9997
2 43678  98.0428  89.4610 0010797  79.2106 281.0328 14.94019854272323
ES'HAIL 2               
1 43700U 18090A   23301.74458356  .00000143  00000+0  00000+0 0  9999
2 43700   0.0129 197.5660 0001714  51.1710  81.9398  1.00273568 18021
FOX-1CLIFF (AO-95)      
1 43770U 18099N   23302.11853089  .00009544  00000+0  73661-3 0  9990
2 43770  97.5790   0.2097 0015208  65.6350 294.6461 15.01685401267692
ITASAT 1                
1 43786U 18099AE  23302.43126365  .00008222  00000+0  64655-3 0  9997
2 43786  97.5531   1.3504 0020325  48.0775 312.2178 15.00940710267776
JY1SAT (JO-97)          
1 43803U 18099AX  23302.44675216  .00011236  00000+0  84259-3 0  9993
2 43803  97.5568   1.6642 0010956  17.6439 342.5165 15.02779387267842
UWE-4                   
1 43880U 18111E   23302.42883582  .00012934  00000+0  92808-3 0  9993
2 43880  97.6214 205.6011 0019829  77.7817 282.5629 15.04298409264531
NEXUS (FO-99)           
1 43937U 19003F   23302.58517644  .00696463  20557-3  18587-2 0  9996
2 43937  97.0585 330.4840 0006582 143.2499 216.9230 15.94512944267076
JAISAT-1                
1 44419U 19038F   23302.40348636  .00054343  00000+0  13868-2 0  9993
2 44419  97.6828 289.4477 0012788 165.3678 194.7939 15.39238088239112
DUCHIFAT-3              
1 44854U 19089C   23302.53251206  .00014721  00000+0  91283-3 0  9996
2 44854  36.9620   6.8438 0006854 340.9834  19.0654 15.09103891213183
TIANYAN 01              
1 44881U 19093C   23302.52544590  .00001707  00000+0  21661-3 0  9994
2 44881  97.8520  18.6492 0014688   5.4481 354.6889 14.82918245208701
RS-44 & BREEZE-KM R/B   
1 44909U 19096E   23302.38186049 -.00000001  00000+0 -43153-4 0  9992
2 44909  82.5191 258.7620 0216383 233.0609 125.0502 12.79723673179324
BY70-2                  
1 45857U 20042B   23302.54628735  .00042584  00000+0  36273-2 0  9992
2 45857  97.9173  23.4542 0008628 278.4187  81.6056 14.97591335179592
SALSAT                  
1 46495U 20068K   23302.58277050  .00008473  00000+0  53319-3 0  9993
2 46495  97.7858 252.2401 0016091  30.6786 329.5379 15.09350083169331
RADFXSAT-2 (AO-109)     
1 47311U 21002C   23302.49166717  .00068504  00000+0  12272-2 0  9990
2 47311  60.6773 258.9034 0021016  24.0052 336.2022 15.49254334155011
UVSQ-SAT                
1 47438U 21006AB  23302.39330041  .00031351  00000+0  10855-2 0  9991
2 47438  97.3673 357.8920 0007803 334.8470  25.2389 15.29774121153124
LEDSAT                  
1 49069U 21073D   23302.15964793  .00016997  00000+0  85381-3 0  9994
2 49069  97.4693  10.9104 0022777  19.1111 341.0972 15.17117035121193
XW-3 (CAS-9)            
1 50466U 21131B   23302.57458441  .00001032  00000+0  34752-3 0  9996
2 50466  98.5450  23.6685 0005341  98.8848 261.2944 14.39147223 96685
TEVEL-3                 
1 50988U 22002E   23302.54419306  .00045627  00000+0  14535-2 0  9991
2 50988  97.4179   9.0814 0007174 117.7693 242.4277 15.32386420 99284
TEVEL-8                 
1 50989U 22002F   23302.56931009  .00043468  00000+0  13887-2 0  9993
2 50989  97.4195   9.1800 0007243 117.0646 243.1335 15.32305834 99280
TEVEL-5                 
1 50998U 22002Q   23302.46932442  .00049709  00000+0  15241-2 0  9994
2 50998  97.4175   9.5778 0008068 112.6064 247.6033 15.33579439 99310
TEVEL-6                 
1 50999U 22002R   23302.46815802  .00049908  00000+0  15307-2 0  9999
2 50999  97.4173   9.5677 0008090 112.4854 247.7246 15.33567896 99318
TEVEL-1                 
1 51013U 22002AF  23302.55875467  .00043486  00000+0  13887-2 0  9996
2 51013  97.4169   9.0138 0007163 117.5778 242.6192 15.32319198 99288
TEVEL-7                 
1 51062U 22002CG  23302.56805095  .00043769  00000+0  13967-2 0  9994
2 51062  97.4191   9.1491 0007184 116.7523 243.4454 15.32341476 99286
TEVEL-4                 
1 51063U 22002CH  23302.44954551  .00046299  00000+0  14814-2 0  9997
2 51063  97.4190   8.9962 0007271 116.7766 243.4220 15.32240998 99268
TEVEL-2                 
1 51069U 22002CP  23302.54538083  .00043869  00000+0  13975-2 0  9999
2 51069  97.4177   9.0503 0007127 117.9085 242.2879 15.32396309 99286
GREENCUBE               
1 53106U 22080B   23297.23570311 -.00000003  00000+0  00000+0 0  9994
2 53106  70.1394 274.8642 0008335 161.2568 198.8399  6.42557213 30041
CYCLOPS (RS29S)         
1 53373U 22096D   23302.58278676  .00097499  00000+0  15731-2 0  9995
2 53373  97.3997 211.3929 0004981  89.4272 270.7551 15.52549350 68435
MONITOR-1 (RS32S)       
1 53374U 22096E   23302.60521402  .00085076  00000+0  14790-2 0  9999
2 53374  97.3949 210.9622 0005121  81.4897 278.6935 15.50496636 68417
KUZBASS-300 (RS34S)     
1 53375U 22096F   23302.56624768  .00055241  00000+0  11540-2 0  9995
2 53375  97.4004 210.0565 0004258  76.8560 283.3164 15.45319903 68347
UTMN (RS23S)            
1 53376U 22096G   23302.58847910  .00063157  00000+0  12611-2 0  9999
2 53376  97.3996 210.3155 0004458  82.7140 277.4616 15.46606571 68366
MIET-AIS (RS28S)        
1 53377U 22096H   23302.58128256  .00055487  00000+0  12098-2 0  9991
2 53377  97.4018 209.9094 0003947  76.7322 283.4366 15.44055604 68335
KAI-1 (RS26S)           
1 53378U 22096J   23302.59415964  .00043218  00000+0  10327-2 0  9990
2 53378  97.4039 209.3285 0003728  72.5676 287.5978 15.41371657 68293
ISOI (RS19S)            
1 53381U 22096M   23302.57771989  .00053008  00000+0  11154-2 0  9991
2 53381  97.4014 210.3383 0001793  48.1581 311.9820 15.45124155 68364
CUBESX-HSE-2 (RS21S)    
1 53383U 22096P   23302.54517324  .00061139  00000+0  12214-2 0  9993
2 53383  97.4002 210.5410 0002010  51.4818 308.6611 15.46608955 68377
SIREN (RS30S)           
1 53384U 22096Q   23302.56791387  .00049430  00000+0  10990-2 0  9998
2 53384  97.4021 209.9423 0001709  37.1604 322.9761 15.43509179 68339
GEOSCAN-EDELVEIS (RS20S)
1 53385U 22096R   23302.58581661  .00109798  00000+0  16082-2 0  9995
2 53385  97.3980 212.2607 0002074  98.8166 261.3323 15.55189109 68528
VIZARD (RS33S)          
1 53386U 22096S   23302.56909931  .00238046  00000+0  20523-2 0  9992
2 53386  97.3955 214.2780 0004692  99.6543 260.5249 15.68522527 68641
CAS-5A (FO-118)         
1 54684U 22167C   23302.61331181  .00023799  00000+0  11636-2 0  9997
2 54684  97.5802  79.7691 0012183 230.4369 129.5789 15.18156995 49049
STRATOSAT-TK 1 (RS52S)  
1 57167U 23091B   23302.54410837  .00015214  00000+0  10556-2 0  9994
2 57167  97.6492 352.0823 0017368 185.4214 174.6827 15.05557107 18637
UMKA 1 (RS40S)          
1 57172U 23091G   23302.57156858  .00007375  00000+0  52885-3 0  9994
2 57172  97.6471 352.0461 0017675 186.0656 174.0359 15.04518858 18639
CUBESX-HSE 3 (RS42S)    
1 57178U 23091N   23302.57359289  .00009533  00000+0  67816-3 0  9991
2 57178  97.6507 352.1051 0018750 180.9250 179.1944 15.04722482 18635
MONITOR-4 (RS57S)       
1 57182U 23091S   23302.58115090  .00008101  00000+0  57928-3 0  9990
2 57182  97.6500 352.0777 0019002 181.0169 179.1021 15.04572704 18635
MONITOR-2 (RS39S)       
1 57184U 23091U   23302.58713609  .00005627  00000+0  39930-3 0  9995
2 57184  97.6514 352.2281 0015131 172.7662 187.3786 15.05052188 18648
SVYATOBOR 1 (RS60S)     
1 57187U 23091X   23302.56104281  .00009082  00000+0  63266-3 0  9994
2 57187  97.6515 352.2626 0014805 172.9260 187.2178 15.05575542 18646
VIZARD-METEO (RS38S)    
1 57189U 23091Z   23302.59377188  .00009591  00000+0  65782-3 0  9997
2 57189  97.6513 352.3615 0014019 168.7188 191.4356 15.06149621 18656
NANOZOND 1 (RS49S)      
1 57190U 23091AA  23302.56199374  .00014541  00000+0  97605-3 0  9995
2 57190  97.6483 352.3575 0012406 176.4827 183.6489 15.06861510 18651
POLYTECH-UNIVERSE 3 (R*)
1 57191U 23091AB  23302.57147609  .00006343  00000+0  45096-3 0  9999
2 57191  97.6469 352.0444 0020388 193.0196 167.0506 15.04857765 18639
UTMN 2 (RS27S)          
1 57203U 23091AP  23302.60286240  .00009290  00000+0  64016-3 0  9999
2 57203  97.6515 352.3489 0014311 168.9072 191.2473 15.05980730 18654
ARCCUBE 1 (RS25S)       
1 57205U 23091AR  23302.55956648  .00016285  00000+0  10876-2 0  9997
2 57205  97.6467 352.3338 0012700 178.3397 181.7875 15.07018445 18657
KUZGTU 1 (RS47S)        
1 57217U 23091AV  23302.57129612  .00009554  00000+0  67973-3 0  9997
2 57217  97.6482 352.0683 0018605 182.3547 177.7595 15.04718404 18630
